{
  "norad_id": 66570,
  "name": "STARLINK-35834",
  "history": [
    {
      "epoch": "2026-03-28T17:03:08.818272Z",
      "apogee_km": 484.0531846783824,
      "perigee_km": 481.9372115084898,
      "latitude_deg": -5.791853076278645e-06,
      "longitude_deg": 158.16939595276335,
      "height_km": 482.7118487103407,
      "semi_major_axis_km": 6861.132198093435,
      "eccentricity": 0.0001542,
      "inclination_deg": 42.9946,
      "raan_deg": 240.0832,
      "arg_perigee_deg": 273.2278,
      "mean_anomaly_deg": 86.8397,
      "mean_motion_rev_day": 15.27598
    },
    {
      "epoch": "2026-03-29T02:28:04.646784Z",
      "apogee_km": 484.67040489322517,
      "perigee_km": 481.25494947392235,
      "latitude_deg": 3.841424844803292e-05,
      "longitude_deg": 14.336443068624671,
      "height_km": 482.4880553001005,
      "semi_major_axis_km": 6861.0996771835735,
      "eccentricity": 0.0002489,
      "inclination_deg": 42.9985,
      "raan_deg": 237.8695,
      "arg_perigee_deg": 278.4854,
      "mean_anomaly_deg": 81.5716,
      "mean_motion_rev_day": 15.27608861
    },
    {
      "epoch": "2026-03-30T02:00:26.666208Z",
      "apogee_km": 483.6911729047406,
      "perigee_km": 482.41224732917544,
      "latitude_deg": 2.344811724302577e-05,
      "longitude_deg": 14.740749205190287,
      "height_km": 482.52290604000495,
      "semi_major_axis_km": 6861.188710116958,
      "eccentricity": 9.32e-05,
      "inclination_deg": 42.9996,
      "raan_deg": 232.3323,
      "arg_perigee_deg": 298.487,
      "mean_anomaly_deg": 61.5888,
      "mean_motion_rev_day": 15.27579127
    }
  ]
}